CCSDS_OMM_VERS = 2.0
CREATION_DATE  = 
ORIGINATOR     = 

OBJECT_NAME    = 2025-313B
OBJECT_ID      = 2025-313B
CENTER_NAME    = EARTH
REF_FRAME      = TEME
TIME_SYSTEM    = UTC
MEAN_ELEMENT_THEORY = SGP/SGP4

EPOCH          = 2026-01-08T11:26:53.826432
MEAN_MOTION    = 14.73138384
ECCENTRICITY   = .0297674
INCLINATION    = 97.5325
RA_OF_ASC_NODE = 85.2022
ARG_OF_PERICENTER = 134.0574
MEAN_ANOMALY   = 228.5570

EPHEMERIS_TYPE = 0
CLASSIFICATION_TYPE = U
NORAD_CAT_ID   = 67249
ELEMENT_SET_NO = 999
REV_AT_EPOCH   = 161
BSTAR          = .41148E-3
MEAN_MOTION_DOT = .5363E-4
MEAN_MOTION_DDOT = 0

CCSDS_OMM_VERS = 2.0
CREATION_DATE  = 
ORIGINATOR     = 

OBJECT_NAME    = 2025-313C
OBJECT_ID      = 2025-313C
CENTER_NAME    = EARTH
REF_FRAME      = TEME
TIME_SYSTEM    = UTC
MEAN_ELEMENT_THEORY = SGP/SGP4

EPOCH          = 2026-01-08T12:44:16.271232
MEAN_MOTION    = 14.84457101
ECCENTRICITY   = .0163473
INCLINATION    = 97.6363
RA_OF_ASC_NODE = 85.5966
ARG_OF_PERICENTER = 144.2281
MEAN_ANOMALY   = 217.0018

EPHEMERIS_TYPE = 0
CLASSIFICATION_TYPE = U
NORAD_CAT_ID   = 67250
ELEMENT_SET_NO = 999
REV_AT_EPOCH   = 163
BSTAR          = .2155E-2
MEAN_MOTION_DOT = .23044E-3
MEAN_MOTION_DDOT = 0

CCSDS_OMM_VERS = 2.0
CREATION_DATE  = 
ORIGINATOR     = 

OBJECT_NAME    = 2025-313D
OBJECT_ID      = 2025-313D
CENTER_NAME    = EARTH
REF_FRAME      = TEME
TIME_SYSTEM    = UTC
MEAN_ELEMENT_THEORY = SGP/SGP4

EPOCH          = 2026-01-08T11:57:32.643072
MEAN_MOTION    = 14.88701576
ECCENTRICITY   = .015223
INCLINATION    = 97.5881
RA_OF_ASC_NODE = 85.5542
ARG_OF_PERICENTER = 137.0094
MEAN_ANOMALY   = 224.3138

EPHEMERIS_TYPE = 0
CLASSIFICATION_TYPE = U
NORAD_CAT_ID   = 67251
ELEMENT_SET_NO = 999
REV_AT_EPOCH   = 163
BSTAR          = .39914E-3
MEAN_MOTION_DOT = .457E-4
MEAN_MOTION_DDOT = 0

CCSDS_OMM_VERS = 2.0
CREATION_DATE  = 
ORIGINATOR     = 

OBJECT_NAME    = 2025-313E
OBJECT_ID      = 2025-313E
CENTER_NAME    = EARTH
REF_FRAME      = TEME
TIME_SYSTEM    = UTC
MEAN_ELEMENT_THEORY = SGP/SGP4

EPOCH          = 2026-01-08T11:06:59.334336
MEAN_MOTION    = 15.21534648
ECCENTRICITY   = .0010576
INCLINATION    = 97.4116
RA_OF_ASC_NODE = 85.7611
ARG_OF_PERICENTER = 178.8456
MEAN_ANOMALY   = 181.2806

EPHEMERIS_TYPE = 0
CLASSIFICATION_TYPE = U
NORAD_CAT_ID   = 67252
ELEMENT_SET_NO = 999
REV_AT_EPOCH   = 166
BSTAR          = .45413E-3
MEAN_MOTION_DOT = .1018E-3
MEAN_MOTION_DDOT = 0

CCSDS_OMM_VERS = 2.0
CREATION_DATE  = 
ORIGINATOR     = 

OBJECT_NAME    = 2025-313F
OBJECT_ID      = 2025-313F
CENTER_NAME    = EARTH
REF_FRAME      = TEME
TIME_SYSTEM    = UTC
MEAN_ELEMENT_THEORY = SGP/SGP4

EPOCH          = 2026-01-08T11:45:14.323968
MEAN_MOTION    = 15.64453676
ECCENTRICITY   = .0010087
INCLINATION    = 97.1034
RA_OF_ASC_NODE = 85.7693
ARG_OF_PERICENTER = 199.0436
MEAN_ANOMALY   = 161.0448

EPHEMERIS_TYPE = 0
CLASSIFICATION_TYPE = U
NORAD_CAT_ID   = 67253
ELEMENT_SET_NO = 999
REV_AT_EPOCH   = 169
BSTAR          = .6207E-3
MEAN_MOTION_DOT = .59919E-3
MEAN_MOTION_DDOT = 0

CCSDS_OMM_VERS = 2.0
CREATION_DATE  = 
ORIGINATOR     = 

OBJECT_NAME    = 2025-313G
OBJECT_ID      = 2025-313G
CENTER_NAME    = EARTH
REF_FRAME      = TEME
TIME_SYSTEM    = UTC
MEAN_ELEMENT_THEORY = SGP/SGP4

EPOCH          = 2026-01-08T11:45:45.490176
MEAN_MOTION    = 15.64372549
ECCENTRICITY   = .0010283
INCLINATION    = 97.1032
RA_OF_ASC_NODE = 85.7688
ARG_OF_PERICENTER = 200.0831
MEAN_ANOMALY   = 160.0026

EPHEMERIS_TYPE = 0
CLASSIFICATION_TYPE = U
NORAD_CAT_ID   = 67254
ELEMENT_SET_NO = 999
REV_AT_EPOCH   = 168
BSTAR          = .57206E-3
MEAN_MOTION_DOT = .55012E-3
MEAN_MOTION_DDOT = 0

CCSDS_OMM_VERS = 2.0
CREATION_DATE  = 
ORIGINATOR     = 

OBJECT_NAME    = 2025-313H
OBJECT_ID      = 2025-313H
CENTER_NAME    = EARTH
REF_FRAME      = TEME
TIME_SYSTEM    = UTC
MEAN_ELEMENT_THEORY = SGP/SGP4

EPOCH          = 2026-01-08T12:49:57.362880
MEAN_MOTION    = 15.02142633
ECCENTRICITY   = .0090503
INCLINATION    = 97.3112
RA_OF_ASC_NODE = 85.3878
ARG_OF_PERICENTER = 157.9707
MEAN_ANOMALY   = 202.5448

EPHEMERIS_TYPE = 0
CLASSIFICATION_TYPE = U
NORAD_CAT_ID   = 67255
ELEMENT_SET_NO = 999
REV_AT_EPOCH   = 165
BSTAR          = .15002E-3
MEAN_MOTION_DOT = .2094E-4
MEAN_MOTION_DDOT = 0

CCSDS_OMM_VERS = 2.0
CREATION_DATE  = 
ORIGINATOR     = 

OBJECT_NAME    = 2025-313J
OBJECT_ID      = 2025-313J
CENTER_NAME    = EARTH
REF_FRAME      = TEME
TIME_SYSTEM    = UTC
MEAN_ELEMENT_THEORY = SGP/SGP4

EPOCH          = 2026-01-07T19:37:11.178336
MEAN_MOTION    = 15.19741528
ECCENTRICITY   = .0016343
INCLINATION    = 97.4108
RA_OF_ASC_NODE = 85.0933
ARG_OF_PERICENTER = 200.8545
MEAN_ANOMALY   = 159.2025

EPHEMERIS_TYPE = 0
CLASSIFICATION_TYPE = U
NORAD_CAT_ID   = 67256
ELEMENT_SET_NO = 999
REV_AT_EPOCH   = 156
BSTAR          = .53125E-3
MEAN_MOTION_DOT = .11337E-3
MEAN_MOTION_DDOT = 0

CCSDS_OMM_VERS = 2.0
CREATION_DATE  = 
ORIGINATOR     = 

OBJECT_NAME    = 2025-313K
OBJECT_ID      = 2025-313K
CENTER_NAME    = EARTH
REF_FRAME      = TEME
TIME_SYSTEM    = UTC
MEAN_ELEMENT_THEORY = SGP/SGP4

EPOCH          = 2026-01-08T11:24:53.417664
MEAN_MOTION    = 15.19784951
ECCENTRICITY   = .001611
INCLINATION    = 97.4116
RA_OF_ASC_NODE = 85.7409
ARG_OF_PERICENTER = 200.5215
MEAN_ANOMALY   = 159.5375

EPHEMERIS_TYPE = 0
CLASSIFICATION_TYPE = U
NORAD_CAT_ID   = 67257
ELEMENT_SET_NO = 999
REV_AT_EPOCH   = 166
BSTAR          = .51123E-3
MEAN_MOTION_DOT = .10919E-3
MEAN_MOTION_DDOT = 0

CCSDS_OMM_VERS = 2.0
CREATION_DATE  = 
ORIGINATOR     = 

OBJECT_NAME    = 2025-313L
OBJECT_ID      = 2025-313L
CENTER_NAME    = EARTH
REF_FRAME      = TEME
TIME_SYSTEM    = UTC
MEAN_ELEMENT_THEORY = SGP/SGP4

EPOCH          = 2026-01-08T11:24:38.875680
MEAN_MOTION    = 15.19822227
ECCENTRICITY   = .0016107
INCLINATION    = 97.4111
RA_OF_ASC_NODE = 85.7397
ARG_OF_PERICENTER = 199.7671
MEAN_ANOMALY   = 160.2941

EPHEMERIS_TYPE = 0
CLASSIFICATION_TYPE = U
NORAD_CAT_ID   = 67258
ELEMENT_SET_NO = 999
REV_AT_EPOCH   = 166
BSTAR          = .54575E-3
MEAN_MOTION_DOT = .11675E-3
MEAN_MOTION_DDOT = 0

CCSDS_OMM_VERS = 2.0
CREATION_DATE  = 
ORIGINATOR     = 

OBJECT_NAME    = 2025-313M
OBJECT_ID      = 2025-313M
CENTER_NAME    = EARTH
REF_FRAME      = TEME
TIME_SYSTEM    = UTC
MEAN_ELEMENT_THEORY = SGP/SGP4

EPOCH          = 2026-01-08T11:22:29.536608
MEAN_MOTION    = 15.20078944
ECCENTRICITY   = .0015313
INCLINATION    = 97.4154
RA_OF_ASC_NODE = 85.7597
ARG_OF_PERICENTER = 198.1031
MEAN_ANOMALY   = 161.9660

EPHEMERIS_TYPE = 0
CLASSIFICATION_TYPE = U
NORAD_CAT_ID   = 67259
ELEMENT_SET_NO = 999
REV_AT_EPOCH   = 166
BSTAR          = .7023E-3
MEAN_MOTION_DOT = .15158E-3
MEAN_MOTION_DDOT = 0

CCSDS_OMM_VERS = 2.0
CREATION_DATE  = 
ORIGINATOR     = 

OBJECT_NAME    = 2025-313N
OBJECT_ID      = 2025-313N
CENTER_NAME    = EARTH
REF_FRAME      = TEME
TIME_SYSTEM    = UTC
MEAN_ELEMENT_THEORY = SGP/SGP4

EPOCH          = 2026-01-08T03:29:09.093696
MEAN_MOTION    = 15.19934247
ECCENTRICITY   = .0015361
INCLINATION    = 97.4123
RA_OF_ASC_NODE = 85.4195
ARG_OF_PERICENTER = 201.4988
MEAN_ANOMALY   = 158.5604

EPHEMERIS_TYPE = 0
CLASSIFICATION_TYPE = U
NORAD_CAT_ID   = 67260
ELEMENT_SET_NO = 999
REV_AT_EPOCH   = 161
BSTAR          = .44807E-3
MEAN_MOTION_DOT = .9598E-4
MEAN_MOTION_DDOT = 0

CCSDS_OMM_VERS = 2.0
CREATION_DATE  = 
ORIGINATOR     = 

OBJECT_NAME    = 2025-313P
OBJECT_ID      = 2025-313P
CENTER_NAME    = EARTH
REF_FRAME      = TEME
TIME_SYSTEM    = UTC
MEAN_ELEMENT_THEORY = SGP/SGP4

EPOCH          = 2026-01-08T11:21:41.447232
MEAN_MOTION    = 15.20220961
ECCENTRICITY   = .0015155
INCLINATION    = 97.4155
RA_OF_ASC_NODE = 85.7608
ARG_OF_PERICENTER = 198.3944
MEAN_ANOMALY   = 161.6745

EPHEMERIS_TYPE = 0
CLASSIFICATION_TYPE = U
NORAD_CAT_ID   = 67261
ELEMENT_SET_NO = 999
REV_AT_EPOCH   = 166
BSTAR          = .96495E-3
MEAN_MOTION_DOT = .20954E-3
MEAN_MOTION_DDOT = 0

CCSDS_OMM_VERS = 2.0
CREATION_DATE  = 
ORIGINATOR     = 

OBJECT_NAME    = 2025-313Q
OBJECT_ID      = 2025-313Q
CENTER_NAME    = EARTH
REF_FRAME      = TEME
TIME_SYSTEM    = UTC
MEAN_ELEMENT_THEORY = SGP/SGP4

EPOCH          = 2026-01-08T12:57:03.248352
MEAN_MOTION    = 15.20077930
ECCENTRICITY   = .0015157
INCLINATION    = 97.4121
RA_OF_ASC_NODE = 85.8088
ARG_OF_PERICENTER = 200.2148
MEAN_ANOMALY   = 159.8489

EPHEMERIS_TYPE = 0
CLASSIFICATION_TYPE = U
NORAD_CAT_ID   = 67262
ELEMENT_SET_NO = 999
REV_AT_EPOCH   = 167
BSTAR          = .64107E-3
MEAN_MOTION_DOT = .13827E-3
MEAN_MOTION_DDOT = 0

CCSDS_OMM_VERS = 2.0
CREATION_DATE  = 
ORIGINATOR     = 

OBJECT_NAME    = 2025-313R
OBJECT_ID      = 2025-313R
CENTER_NAME    = EARTH
REF_FRAME      = TEME
TIME_SYSTEM    = UTC
MEAN_ELEMENT_THEORY = SGP/SGP4

EPOCH          = 2026-01-07T16:24:49.715136
MEAN_MOTION    = 15.20025645
ECCENTRICITY   = .0015045
INCLINATION    = 97.4135
RA_OF_ASC_NODE = 84.9810
ARG_OF_PERICENTER = 202.3497
MEAN_ANOMALY   = 157.7085

EPHEMERIS_TYPE = 0
CLASSIFICATION_TYPE = U
NORAD_CAT_ID   = 67263
ELEMENT_SET_NO = 999
REV_AT_EPOCH   = 154
BSTAR          = .49768E-3
MEAN_MOTION_DOT = .10697E-3
MEAN_MOTION_DDOT = 0

